{
  "type": "FeatureCollection",
  "features": [
    {
      "type": "Feature",
      "properties": {
        "norad_id": 40118,
        "name": "GAOFEN-2",
        "group": "resource",
        "lat": -38.04898916543313,
        "lon": 67.14302956833922,
        "alt_km": 635.8950103882553,
        "timestamp": "2025-12-27T14:26:30.173689+00:00",
        "meta_object_name": "GAOFEN-2",
        "meta_object_id": "2014-049A",
        "meta_epoch": "2025-12-27T08:07:39.381600",
        "meta_mean_motion": 14.80634742,
        "meta_eccentricity": 0.00087335,
        "meta_inclination": 98.0362,
        "meta_ra_of_asc_node": 60.5311,
        "meta_arg_of_pericenter": 72.9478,
        "meta_mean_anomaly": 287.269,
        "meta_ephemeris_type": 0,
        "meta_classification_type": "U",
        "meta_norad_cat_id": 40118,
        "meta_element_set_no": 999,
        "meta_rev_at_epoch": 61380,
        "meta_bstar": 0.00018263309,
        "meta_mean_motion_dot": 1.35e-05,
        "meta_mean_motion_ddot": 0,
        "tle_line1": "1 40118U 14049A   25361.33865025  .00001350  00000+0  18263-3 0  9992",
        "tle_line2": "2 40118  98.0362  60.5311 0008733  72.9478 287.2690 14.80634742613809"
      },
      "geometry": {
        "type": "Point",
        "coordinates": [
          67.14302956833922,
          -38.04898916543313
        ]
      }
    },
    {
      "type": "Feature",
      "properties": {
        "norad_id": 40143,
        "name": "YAOGAN-21",
        "group": "resource",
        "lat": 67.20075963626637,
        "lon": 26.83155861127687,
        "alt_km": 486.4578148002156,
        "timestamp": "2025-12-27T14:26:30.173704+00:00",
        "meta_object_name": "YAOGAN-21",
        "meta_object_id": "2014-053A",
        "meta_epoch": "2025-12-27T06:15:48.329856",
        "meta_mean_motion": 15.23824559,
        "meta_eccentricity": 0.00082841,
        "meta_inclination": 97.1739,
        "meta_ra_of_asc_node": 43.9419,
        "meta_arg_of_pericenter": 353.0294,
        "meta_mean_anomaly": 7.0827,
        "meta_ephemeris_type": 0,
        "meta_classification_type": "U",
        "meta_norad_cat_id": 40143,
        "meta_element_set_no": 999,
        "meta_rev_at_epoch": 62875,
        "meta_bstar": 0.00029420917,
        "meta_mean_motion_dot": 7.029e-05,
        "meta_mean_motion_ddot": 0,
        "tle_line1": "1 40143U 14053A   25361.26097604  .00007029  00000+0  29421-3 0  9994",
        "tle_line2": "2 40143  97.1739  43.9419 0008284 353.0294   7.0827 15.23824559628754"
      },
      "geometry": {
        "type": "Point",
        "coordinates": [
          26.83155861127687,
          67.20075963626637
        ]
      }
    },
    {
      "type": "Feature",
      "properties": {
        "norad_id": 40275,
        "name": "YAOGAN-22",
        "group": "resource",
        "lat": -56.89663264391891,
        "lon": 162.15985557926982,
        "alt_km": 1208.7001709363658,
        "timestamp": "2025-12-27T14:26:30.173715+00:00",
        "meta_object_name": "YAOGAN-22",
        "meta_object_id": "2014-063A",
        "meta_epoch": "2025-12-27T05:36:45.157536",
        "meta_mean_motion": 13.15523321,
        "meta_eccentricity": 0.00061264,
        "meta_inclination": 100.7431,
        "meta_ra_of_asc_node": 144.8585,
        "meta_arg_of_pericenter": 213.6133,
        "meta_mean_anomaly": 146.459,
        "meta_ephemeris_type": 0,
        "meta_classification_type": "U",
        "meta_norad_cat_id": 40275,
        "meta_element_set_no": 999,
        "meta_rev_at_epoch": 53720,
        "meta_bstar": 7.626334e-05,
        "meta_mean_motion_dot": -1.8e-07,
        "meta_mean_motion_ddot": 0,
        "tle_line1": "1 40275U 14063A   25361.23385599 -.00000018  00000+0  76263-4 0  9990",
        "tle_line2": "2 40275 100.7431 144.8585 0006126 213.6133 146.4590 13.15523321537207"
      },
      "geometry": {
        "type": "Point",
        "coordinates": [
          162.15985557926982,
          -56.89663264391891
        ]
      }
    },
    {
      "type": "Feature",
      "properties": {
        "norad_id": 40298,
        "name": "ASNARO",
        "group": "resource",
        "lat": -75.1756063969362,
        "lon": -132.06177853865077,
        "alt_km": 517.6200583745376,
        "timestamp": "2025-12-27T14:26:30.173725+00:00",
        "meta_object_name": "ASNARO",
        "meta_object_id": "2014-070A",
        "meta_epoch": "2025-12-27T06:59:36.909024",
        "meta_mean_motion": 15.19805056,
        "meta_eccentricity": 0.00056625,
        "meta_inclination": 97.363,
        "meta_ra_of_asc_node": 76.8827,
        "meta_arg_of_pericenter": 83.3567,
        "meta_mean_anomaly": 276.8313,
        "meta_ephemeris_type": 0,
        "meta_classification_type": "U",
        "meta_norad_cat_id": 40298,
        "meta_element_set_no": 999,
        "meta_rev_at_epoch": 61790,
        "meta_bstar": 0.00086271939,
        "meta_mean_motion_dot": 0.00018449,
        "meta_mean_motion_ddot": 0,
        "tle_line1": "1 40298U 14070A   25361.29139941  .00018449  00000+0  86272-3 0  9993",
        "tle_line2": "2 40298  97.3630  76.8827 0005662  83.3567 276.8313 15.19805056617905"
      },
      "geometry": {
        "type": "Point",
        "coordinates": [
          -132.06177853865077,
          -75.1756063969362
        ]
      }
    },
    {
      "type": "Feature",
      "properties": {
        "norad_id": 40310,
        "name": "YAOGAN-24",
        "group": "resource",
        "lat": 67.31515275376319,
        "lon": 112.79444032692541,
        "alt_km": 625.0833283730954,
        "timestamp": "2025-12-27T14:26:30.173735+00:00",
        "meta_object_name": "YAOGAN-24",
        "meta_object_id": "2014-072A",
        "meta_epoch": "2025-12-27T07:37:29.229888",
        "meta_mean_motion": 14.76205398,
        "meta_eccentricity": 0.00152023,
        "meta_inclination": 98.1232,
        "meta_ra_of_asc_node": 132.4894,
        "meta_arg_of_pericenter": 94.6056,
        "meta_mean_anomaly": 265.689,
        "meta_ephemeris_type": 0,
        "meta_classification_type": "U",
        "meta_norad_cat_id": 40310,
        "meta_element_set_no": 999,
        "meta_rev_at_epoch": 59836,
        "meta_bstar": 0.0001031193,
        "meta_mean_motion_dot": 6.62e-06,
        "meta_mean_motion_ddot": 0,
        "tle_line1": "1 40310U 14072A   25361.31769942  .00000662  00000+0  10312-3 0  9993",
        "tle_line2": "2 40310  98.1232 132.4894 0015202  94.6056 265.6890 14.76205398598368"
      },
      "geometry": {
        "type": "Point",
        "coordinates": [
          112.79444032692541,
          67.31515275376319
        ]
      }
    },
    {
      "type": "Feature",
      "properties": {
        "norad_id": 40336,
        "name": "CBERS 4",
        "group": "resource",
        "lat": 23.044097726650747,
        "lon": -117.31900146752533,
        "alt_km": 772.2158815537905,
        "timestamp": "2025-12-27T14:26:30.173746+00:00",
        "meta_object_name": "CBERS 4",
        "meta_object_id": "2014-079A",
        "meta_epoch": "2025-12-27T07:01:24.564288",
        "meta_mean_motion": 14.35523266,
        "meta_eccentricity": 0.00018925,
        "meta_inclination": 98.3285,
        "meta_ra_of_asc_node": 58.81,
        "meta_arg_of_pericenter": 96.7003,
        "meta_mean_anomaly": 263.4398,
        "meta_ephemeris_type": 0,
        "meta_classification_type": "U",
        "meta_norad_cat_id": 40336,
        "meta_element_set_no": 999,
        "meta_rev_at_epoch": 57929,
        "meta_bstar": 5.3400433e-05,
        "meta_mean_motion_dot": 1.12e-06,
        "meta_mean_motion_ddot": 0,
        "tle_line1": "1 40336U 14079A   25361.29264542  .00000112  00000+0  53400-4 0  9997",
        "tle_line2": "2 40336  98.3285  58.8100 0001892  96.7003 263.4398 14.35523266579294"
      },
      "geometry": {
        "type": "Point",
        "coordinates": [
          -117.31900146752533,
          23.044097726650747
        ]
      }
    },
    {
      "type": "Feature",
      "properties": {
        "norad_id": 40362,
        "name": "YAOGAN-26",
        "group": "resource",
        "lat": -82.43803589549756,
        "lon": 112.6478169725063,
        "alt_km": 453.12392376175285,
        "timestamp": "2025-12-27T14:26:30.173756+00:00",
        "meta_object_name": "YAOGAN-26",
        "meta_object_id": "2014-088A",
        "meta_epoch": "2025-12-27T07:02:43.620288",
        "meta_mean_motion": 15.39829417,
        "meta_eccentricity": 0.00040476,
        "meta_inclination": 97.0648,
        "meta_ra_of_asc_node": 1.4532,
        "meta_arg_of_pericenter": 341.2339,
        "meta_mean_anomaly": 18.8758,
        "meta_ephemeris_type": 0,
        "meta_classification_type": "U",
        "meta_norad_cat_id": 40362,
        "meta_element_set_no": 999,
        "meta_rev_at_epoch": 61118,
        "meta_bstar": 0.0006838671,
        "meta_mean_motion_dot": 0.00027121,
        "meta_mean_motion_ddot": 0,
        "tle_line1": "1 40362U 14088A   25361.29356042  .00027121  00000+0  68387-3 0  9991",
        "tle_line2": "2 40362  97.0648   1.4532 0004047 341.2339  18.8758 15.39829417611189"
      },
      "geometry": {
        "type": "Point",
        "coordinates": [
          112.6478169725063,
          -82.43803589549756
        ]
      }
    }
  ]
}